UNKNOWN                 
1 82829U          25250.33060162  .00000074  00000+0  32019-2 0  9991
2 82829  65.0948 213.2282 0168733 353.9145 158.4958 11.29113730475195
UNKNOWN                 
1 82854U          25230.07540292  .00001277  00000+0  10098-2 0  9994
2 82854  82.6921 156.0463 0125224 253.7325 105.0032 13.87290664 63988
UNKNOWN                 
1 82873U          25248.93785018  .00003698  00000+0  16398-2 0  9994
2 82873 100.0004 129.8261 0037183 194.4174 165.5942 14.23441451607314
UNKNOWN                 
1 82875U          25242.24521703  .00000497  00000+0  14327-3 0  9998
2 82875  98.6643 228.2506 0378212 222.6912 134.4302 14.14864198529694
UNKNOWN                 
1 82893U          25250.28472424  .00008537  00000+0  33601-2 0  9994
2 82893  98.9618   2.4781 0023294 320.6012  39.3473 14.29294042410189
UNKNOWN                 
1 82912U          25241.75630918  .00001192  00000+0  52560-3 0  9998
2 82912  65.8351  55.9926 0778495 316.3996  37.7966 13.26638081565399
UNKNOWN                 
1 82961U          25247.15942905  .00014183  00000+0  22368-1 0  9999
2 82961  99.9032  46.6533 0415713 238.6962 117.2828 13.20346817542559
UNKNOWN                 
1 82965U          25239.92679783  .00001067  00000+0  15021-2 0  9996
2 82965 100.1213 316.0021 0002530 136.0259 224.1080 13.59691630509935
UNKNOWN                 
1 83903U          25250.47730318 -.00000351  00000+0  00000+0 0  9998
2 83903   6.4242 291.4500 0125518 247.9578 123.2988  0.99117302 42717
UNKNOWN                 
1 83934U          25250.08016652 -.00000190  00000+0  00000+0 0  9998
2 83934   6.0033 298.1345 0233173 267.8731 108.4772  1.02662719 44298
UNKNOWN                 
1 83970U          25223.46847977  .00004695  00000+0  49216-2 0  9990
2 83970  18.3471 358.9472 5079418 246.6278  53.2784  5.31009163189645
UNKNOWN                 
1 84006U          25249.53955733 -.00000048  00000+0  00000+0 0  9991
2 84006  22.6444 196.9829 6113458  27.0473 354.5376  2.16230679 82129
UNKNOWN                 
1 84188U          25250.33477459  .00012617  00000+0  22395-1 0  9993
2 84188  64.8785 334.9210 3858058  29.4709 347.6861  7.20069579 34242
UNKNOWN                 
1 84236U          25228.13669582 -.00000088  00000+0 -43939-3 0  9990
2 84236   9.3634  28.0499 6885020 349.2911   1.3310  2.62432316199589
UNKNOWN                 
1 84292U          25249.23210775  .00006502  00000+0  33702-2 0  9993
2 84292  23.8483 295.4103 4576510   5.1088 358.3659  6.20503121222004
UNKNOWN                 
1 84406U          25228.19604102  .00000374  00000+0  21964-2 0  9991
2 84406 101.7153  10.8470 0043302 269.7653 269.0266 12.67136614 34298
UNKNOWN                 
1 84407U          25244.39597066 -.00000289  00000+0 -52520-2 0  9991
2 84407  19.5797 352.6090 7202966   6.8508 359.1065  2.05742460 73769
UNKNOWN                 
1 84437U          25228.06515417 -.00000394  00000+0  00000+0 0  9999
2 84437  18.5549 286.6826 7033165 205.8865  88.1603  1.97333478 10605
UNKNOWN                 
1 84575U          25249.98871916 -.00000190  00000+0 -25644-2 0  9994
2 84575  18.0912 190.4765 7118619 323.5221   4.5366  2.19895323 63336
UNKNOWN                 
1 84932U          25250.56798465  .00000812  00000+0  79374-2 0  9992
2 84932   2.3598 297.4375 6557489 310.7329 191.8499  2.99751281128894
UNKNOWN                 
1 85001U          25248.15486111 -.00000419  00000+0  00000+0 0  9995
2 85001  28.5167  22.1078 6968193 127.6048  38.5859  2.69831137    14
UNKNOWN                 
1 85004U          25247.41820779  .00001934  00000+0  61017-3 0  9999
2 85004  98.4061 220.0360 0048741 100.5773  51.6876 14.40701547616590
UNKNOWN                 
1 85010U          25249.41314036  .00001234  00000+0  13402-2 0  9999
2 85010  99.2582 114.2925 0024918 145.1310  32.1641 13.74760373590545
UNKNOWN                 
1 85015U          25247.22338873  .00000981  00000+0  20088-3 0  9993
2 85015  74.0464 228.6109 0014747 165.3046 194.8553 14.62108099628069
UNKNOWN                 
1 85023U          25250.49051193  .00022965  00000+0  40709-2 0  9999
2 85023  99.8530 246.0612 0002242 129.2341  22.0464 14.67269637614681
UNKNOWN                 
1 85027U          25250.51426508  .00000226  00000+0  28645-3 0  9994
2 85027  66.0438 337.1463 0184358 240.4161 117.8422 13.74186432591396
UNKNOWN                 
1 85047U          25247.13366208  .00012815  00000+0  22672-1 0  9999
2 85047 102.3184 191.5425 0099589 262.5153  96.4643 13.40761946563294
UNKNOWN                 
1 85061U          25246.89432662  .00005382  00000+0  20821-1 0  9990
2 85061 102.3799 221.6873 0302739  25.0205  32.2048 12.76145336543043
UNKNOWN                 
1 85100U          25249.70435788  .00000624  00000+0  20400-3 0  9998
2 85100  74.0455  42.1600 0013330 293.2338  84.5801 14.40589850619370
UNKNOWN                 
1 85106U          25250.01302613  .00000703  00000+0  81818-3 0  9998
2 85106 100.0545 346.1422 0009331 255.2098 283.7178 13.72723488589795
UNKNOWN                 
1 85151U          25250.08176448  .00027413  00000+0  42258-2 0  9991
2 85151  98.4138 110.2994 0011836  81.5773 278.6775 14.73306406465271
UNKNOWN                 
1 85210U          25245.66531593  .00001873  00000+0  18086-2 0  9995
2 85210  99.8483  23.9650 0217524 212.6834 161.2785 13.71315574588302
UNKNOWN                 
1 85217U          25249.22269375  .00003239  00000+0  86835-3 0  9990
2 85217  98.0303 350.0669 0211206  63.1122 299.1481 14.36390831613859
UNKNOWN                 
1 85237U          25248.62512902  .00008500  00000+0  18647-2 0  9993
2 85237  65.5344 112.0048 0511957  73.0134 292.6375 13.99382818594617
UNKNOWN                 
1 85238U          25250.04529028  .00000080  00000+0  10082-3 0  9991
2 85238  99.0478 182.0603 0064333 101.9569 321.0457 13.88315863597420
UNKNOWN                 
1 85246U          25250.31363089  .00001187  00000+0  44027-3 0  9998
2 85246  97.9903 262.8819 0223338 228.0471 130.1486 14.21071511609376
UNKNOWN                 
1 85373U          25245.91789678  .00003047  00000+0  21098-2 0  9994
2 85373 100.4322 268.1063 0048411 144.5812 336.0499 13.99390162598020
UNKNOWN                 
1 87014U          25250.64381375  .00002818  00000+0  43871-2 0  9994
2 87014 100.5001 209.5960 0049814 100.3747  81.1297 13.51200798577933
UNKNOWN                 
1 87029U          25245.07212326  .00001457  00000+0  91630-3 0  9995
2 87029  98.7698 283.8894 0083094 174.3229 185.8900 14.04181410578734
UNKNOWN                 
1 87042U          25250.39121729  .00000809  00000+0  50703-3 0  9993
2 87042  98.7274 297.0267 0043093   8.5115 351.6776 14.06879518540410
UNKNOWN                 
1 87051U          25249.38524039  .00002220  00000+0  75551-3 0  9998
2 87051  65.7267 126.3214 0726006 185.6300 173.6253 13.45128936575487
UNKNOWN                 
1 87054U          25248.92749275  .00003063  00000+0  17498-2 0  9992
2 87054 100.0991 116.3871 0012316 255.6518 104.3281 14.10473160602530
UNKNOWN                 
1 87071U          25250.26682910  .00002678  00000+0  97269-3 0  9999
2 87071  61.2182 198.2040 0493066 189.5817 169.5536 13.84095473589120
UNKNOWN                 
1 87113U          25250.62421042  .00298783  00000+0  49857-2 0  9996
2 87113  65.6183  12.4864 0083812 252.5404 106.6570 15.46859188621122
UNKNOWN                 
1 87129U          25249.20395660  .00000248  00000+0  21264-2 0  9990
2 87129 102.2645 339.0052 0030980 259.2307 100.5269 12.42761930534559
UNKNOWN                 
1 87159U          25235.78660526  .00000973  00000+0  11360-2 0  9998
2 87159  90.3428  65.4192 0105275 226.1160 133.1270 13.65688076541549
UNKNOWN                 
1 87163U          25249.96923354  .00006358  00000+0  19367-2 0  9997
2 87163  65.5989 114.8245 0645188 108.1097 259.1292 13.63111938564328
UNKNOWN                 
1 87164U          25249.27568440  .00005135  00000+0  10902-2 0  9991
2 87164  65.2019 250.4613 0097385 102.0676 259.1356 14.57083874621564
UNKNOWN                 
1 87204U          25250.08484976  .00003040  00000+0  12128-2 0  9993
2 87204  98.5475 112.8575 0044688 249.0527 110.5869 14.28697062611631
UNKNOWN                 
1 87211U          25249.74396534  .00005648  00000+0  15892-2 0  9991
2 87211  99.0814 242.7084 0056032  87.4040  91.9467 14.45357243693752
UNKNOWN                 
1 87214U          25248.42735234  .00002289  00000+0  20730-2 0  9997
2 87214 100.3234 237.4986 0073929 143.0060 217.6221 13.83661009586647
UNKNOWN                 
1 87237U          25250.12083125  .00000449  00000+0  37267-3 0  9997
2 87237  99.2708 305.7540 0103779 184.9397 205.6317 13.91637532598327
UNKNOWN                 
1 87239U          25248.79047231  .00011466  00000+0  29838-2 0  9992
2 87239  82.8772 165.8470 0023283 359.3423   0.7739 14.49367533613677
UNKNOWN                 
1 87245U          25250.16817262  .00007869  00000+0  15977-2 0  9993
2 87245  65.6484 305.7673 0442564 169.3815 228.4415 14.14423879600544
UNKNOWN                 
1 87271U          25250.11347861  .00012445  00000+0  23307-2 0  9992
2 87271  65.7560 135.6416 0428552 124.8504 239.3671 14.19616199598642
UNKNOWN                 
1 87280U          25248.93207024  .00000355  00000+0  66979-3 0  9995
2 87280  64.6145 117.2554 0129213 279.7833  78.8635 13.48429332520660
UNKNOWN                 
1 87293U          25249.40576554  .00007440  00000+0  15646-2 0  9995
2 87293  65.8980  43.4422 0424998  53.1259 310.8000 14.16054289600207
UNKNOWN                 
1 87300U          25249.18447354  .00001917  00000+0  13591-2 0  9994
2 87300 100.0734 221.9484 0027915 191.6951 168.3563 13.98947980599475
UNKNOWN                 
1 87304U          25250.00424201  .00002623  00000+0  39477-3 0  9994
2 87304  74.0199 150.2397 0017731 148.6951 211.5282 14.74888229632212
